TIANMU-1 20             
1 58661U 23208B   26190.25765985  .00005885  00000+0  18645-3 0  9998
2 58661  97.4456 307.3354 0005865 236.3816 123.6867 15.33104044140802
TIANMU-1 21             
1 58662U 23208C   26190.27753196  .00007419  00000+0  21748-3 0  9995
2 58662  97.4515 310.1328 0006150 227.3131 132.7595 15.35479763140950
TIANMU-1 22             
1 58663U 23208D   26190.29172009  .00005454  00000+0  18260-3 0  9998
2 58663  97.4511 306.6284 0002337 248.9788 111.1203 15.31372714140713
TIANMU-1 15             
1 58700U 24004A   26190.31468610  .00003905  00000+0  15071-3 0  9990
2 58700  97.4673  16.5056 0005745 254.1555 105.9050 15.26874975139152
TIANMU-1 16             
1 58701U 24004B   26190.30454970  .00003626  00000+0  13974-3 0  9994
2 58701  97.4621  15.7153 0004318 273.9802  86.0943 15.26977155139158
TIANMU-1 17             
1 58702U 24004C   26190.29002417  .00003874  00000+0  14912-3 0  9996
2 58702  97.4648  16.1939 0003859 281.8828  78.1978 15.26975622139146
TIANMU-1 18             
1 58703U 24004D   26190.33131993  .00003796  00000+0  14657-3 0  9993
2 58703  97.4666  16.4972 0003411 253.5915 106.4949 15.26892245139157
INSAT-3DS               
1 58990U 24033A   26190.10669520 -.00000142  00000+0  00000+0 0  9996
2 58990   0.0132 323.9347 0001125 158.0673 285.5291  1.00271624 47285
METEOR-M2 4             
1 59051U 24039A   26190.27081278 -.00000005  00000+0  17442-4 0  9998
2 59051  98.7022 149.2926 0008198 103.4843 256.7248 14.22431758122402
GOES 19                 
1 60133U 24119A   26190.26880483 -.00000235  00000+0  00000+0 0  9996
2 60133   0.0099 263.9936 0000499 292.5736 112.2180  1.00270960  7183
MTG-S1                  
1 64723U 25143A   26190.29975376  .00000006  00000+0  00000+0 0  9997
2 64723   0.5877 343.6536 0003390 261.9871 149.0710  1.00272613  3647
METOP-SGA1              
1 65159U 25172A   26190.12673089  .00000009  00000+0  24790-4 0  9991
2 65159  98.6632 249.3905 0007401 350.6129   9.4908 14.19818514 46903
FENGYUN 3H              
1 65815U 25219A   26190.23788686  .00000026  00000+0  32538-4 0  9992
2 65815  98.6772 130.5787 0001280  63.3923 296.7385 14.19924249 40519
